NORAD_CAT_ID,OBJECT_NAME,OBJECT_TYPE,EPOCH,MEAN_MOTION,ECCENTRICITY,INCLINATION,RA_OF_ASC_NODE,ARG_OF_PERICENTER,MEAN_ANOMALY,BSTAR,MEAN_MOTION_DOT,MEAN_MOTION_DDOT,TLE_LINE0,TLE_LINE1,TLE_LINE2,SEMIMAJOR_AXIS,PERIOD,APOGEE,PERIGEE,DECAYED
51753.0,STARLINK-3507,PAYLOAD,2023-11-25 13:13:00,15.08841012,0.0001205,53.2155,98.2153,80.7381,279.3748,7.8085e-05,9.55e-06,0.0,0 STARLINK-3507,1 51753U 22016AR  23329.55070001  .00000955  00000-0  78085-4 0  9990,2 51753  53.2155  98.2153 0001205  80.7381 279.3748 15.08841012 97621,6917.877,95.437,540.576,538.909,0.0
51753.0,STARLINK-3507,PAYLOAD,2023-11-25 16:23:46,15.08849947,0.000141,53.2168,97.6175,83.6292,276.4861,0.0001853,2.663e-05,0.0,0 STARLINK-3507,1 51753U 22016AR  23329.68317210  .00002663  00000-0  18530-3 0  9996,2 51753  53.2168  97.6175 0001410  83.6292 276.4861 15.08849947 97644,6917.85,95.437,540.69,538.74,0.0
51753.0,STARLINK-3507,PAYLOAD,2023-11-26 08:17:37,15.08846658,0.0001377,53.2163,94.6442,77.6865,282.4281,0.00014377,2.001e-05,0.0,0 STARLINK-3507,1 51753U 22016AR  23330.34557225  .00002001  00000-0  14377-3 0  9994,2 51753  53.2163  94.6442 0001377  77.6865 282.4281 15.08846658 98813,6917.86,95.437,540.678,538.772,0.0
51753.0,STARLINK-3507,PAYLOAD,2023-11-26 14:39:09,15.08851693,0.0001761,53.2161,93.4577,55.2727,304.8431,0.00021951,3.208e-05,0.0,0 STARLINK-3507,1 51753U 22016AR  23330.61052650  .00003208  00000-0  21951-3 0  9992,2 51753  53.2161  93.4577 0001761  55.2727 304.8431 15.08851693 97789,6917.845,95.437,540.928,538.491,0.0
51753.0,STARLINK-3507,PAYLOAD,2023-11-27 11:19:11,15.08838149,0.0001401,53.217,89.5877,81.3278,278.7873,-0.00012836,-2.33e-05,0.0,0 STARLINK-3507,1 51753U 22016AR  23331.47166510 -.00002330  00000-0 -12836-3 0  9997,2 51753  53.2170  89.5877 0001401  81.3278 278.7873 15.08838149 98983,6917.886,95.438,540.72,538.782,0.0
51753.0,STARLINK-3507,PAYLOAD,2023-11-27 14:29:58,15.08836925,0.0001337,53.2169,88.9926,89.4781,270.6364,-0.00013675,-2.463e-05,0.0,0 STARLINK-3507,1 51753U 22016AR  23331.60414567 -.00002463  00000-0 -13675-3 0  9999,2 51753  53.2169  88.9926 0001337  89.4781 270.6364 15.08836925 97935,6917.89,95.438,540.68,538.83,0.0
51753.0,STARLINK-3507,PAYLOAD,2023-11-28 11:09:58,15.08847962,0.0001317,53.2166,85.1244,110.5457,249.5676,-0.00011093,-2.053e-05,0.0,0 STARLINK-3507,1 51753U 22016AR  23332.46525759 -.00002053  00000-0 -11093-3 0  9997,2 51753  53.2166  85.1244 0001317 110.5457 249.5676 15.08847962 99136,6917.856,95.437,540.632,538.81,0.0
51753.0,STARLINK-3507,PAYLOAD,2023-11-28 14:20:43,15.08858499,0.0001251,53.2187,84.5324,90.894,269.2195,-0.00013569,-2.448e-05,0.0,0 STARLINK-3507,1 51753U 22016AR  23332.59773136 -.00002448  00000-0 -13569-3 0  9993,2 51753  53.2187  84.5324 0001251  90.8940 269.2195 15.08858499 98080,6917.824,95.436,540.554,538.823,0.0
51753.0,STARLINK-3507,PAYLOAD,2023-11-28 17:31:29,15.088605,0.0001139,53.2186,83.9345,101.7282,258.3838,-0.00013111,-2.375e-05,0.0,0 STARLINK-3507,1 51753U 22016AR  23332.73020796 -.00002375  00000-0 -13111-3 0  9998,2 51753  53.2186  83.9345 0001139 101.7282 258.3838 15.08860500 99171,6917.818,95.436,540.471,538.895,0.0
51753.0,STARLINK-3507,PAYLOAD,2023-11-29 12:36:09,15.088315,0.0001418,53.2171,80.3693,107.4378,252.6769,0.00014191,1.971e-05,0.0,0 STARLINK-3507,1 51753U 22016AR  23333.52510471  .00001971  00000-0  14191-3 0  9998,2 51753  53.2171  80.3693 0001418 107.4378 252.6769 15.08831500 99292,6917.906,95.438,540.752,538.79,0.0
51753.0,STARLINK-3507,PAYLOAD,2023-11-29 14:11:32,15.08834533,0.0001315,53.2179,80.0721,107.0247,253.0889,0.00015516,2.182e-05,0.0,0 STARLINK-3507,1 51753U 22016AR  23333.59134368  .00002182  00000-0  15516-3 0  9999,2 51753  53.2179  80.0721 0001315 107.0247 253.0889 15.08834533 98236,6917.897,95.438,540.672,538.852,0.0
51753.0,STARLINK-3507,PAYLOAD,2023-11-30 12:26:56,15.08845666,0.0001458,53.2185,75.9128,102.7503,257.3652,-2.2391e-06,-3.24e-06,0.0,0 STARLINK-3507,1 51753U 22016AR  23334.51870512 -.00000324  00000-0 -22391-5 0  9999,2 51753  53.2185  75.9128 0001458 102.7503 257.3652 15.08845666 99440,6917.863,95.437,540.737,538.719,0.0
51753.0,STARLINK-3507,PAYLOAD,2023-12-01 12:17:43,15.08839156,0.0001566,53.2188,71.4539,108.1919,251.9244,0.00011129,1.484e-05,0.0,0 STARLINK-3507,1 51753U 22016AR  23335.51230792  .00001484  00000-0  11129-3 0  9991,2 51753  53.2188  71.4539 0001566 108.1919 251.9244 15.08839156 99591,6917.883,95.438,540.831,538.665,0.0
51753.0,STARLINK-3507,PAYLOAD,2023-12-02 12:08:30,15.088168,0.0001399,53.2181,66.9917,105.3942,254.7205,-0.00034765,-5.813e-05,0.0,0 STARLINK-3507,1 51753U 22016AR  23336.50591134 -.00005813  00000-0 -34765-3 0  9994,2 51753  53.2181  66.9917 0001399 105.3942 254.7205 15.08816800 99748,6917.951,95.439,540.784,538.848,0.0
51753.0,STARLINK-3507,PAYLOAD,2023-12-02 13:43:54,15.08806835,0.0001477,53.2186,66.6962,91.2886,268.8275,-0.00047649,-7.856e-05,0.0,0 STARLINK-3507,1 51753U 22016AR  23336.57215755 -.00007856  00000-0 -47649-3 0  9997,2 51753  53.2186  66.6962 0001477  91.2886 268.8275 15.08806835 98689,6917.982,95.44,540.869,538.825,0.0
51753.0,STARLINK-3507,PAYLOAD,2023-12-03 11:59:20,15.08819915,0.0001741,53.2197,62.5366,67.6117,292.5059,-0.00010535,-1.963e-05,0.0,0 STARLINK-3507,1 51753U 22016AR  23337.49954085 -.00001963  00000-0 -10535-3 0  9992,2 51753  53.2197  62.5366 0001741  67.6117 292.5059 15.08819915 99893,6917.942,95.439,541.011,538.602,0.0
51753.0,STARLINK-3507,PAYLOAD,2023-12-03 13:34:43,15.08822133,0.000217,53.219,62.2391,53.9425,306.1768,-9.0666e-05,-1.73e-05,0.0,0 STARLINK-3507,1 51753U 22016AR  23337.56578124 -.00001730  00000-0 -90666-4 0  9992,2 51753  53.2190  62.2391 0002170  53.9425 306.1768 15.08822133 98836,6917.935,95.439,541.301,538.299,0.0
51753.0,STARLINK-3507,PAYLOAD,2023-12-04 11:50:05,15.08835374,0.0001376,53.2176,58.0719,70.2257,289.8883,0.0004981,7.647e-05,0.0,0 STARLINK-3507,1 51753U 22016AR  23338.49311785  .00007647  00000-0  49810-3 0  9998,2 51753  53.2176  58.0719 0001376  70.2257 289.8883 15.08835374100042,6917.895,95.438,540.711,538.808,0.0
51753.0,STARLINK-3507,PAYLOAD,2023-12-05 11:40:53,15.08841342,0.0001414,53.2181,53.6093,89.7936,270.3219,0.00021143,3.079e-05,0.0,0 STARLINK-3507,1 51753U 22016AR  23339.48672532  .00003079  00000-0  21143-3 0  9992,2 51753  53.2181  53.6093 0001414  89.7936 270.3219 15.08841342100192,6917.876,95.437,540.719,538.763,0.0
51753.0,STARLINK-3507,PAYLOAD,2023-12-06 11:31:39,15.08858815,0.0001496,53.2182,49.1479,79.799,280.3171,-2.3621e-05,-6.64e-06,0.0,0 STARLINK-3507,1 51753U 22016AR  23340.48031353 -.00000664  00000-0 -23621-4 0  9997,2 51753  53.2182  49.1479 0001496  79.7990 280.3171 15.08858815100348,6917.823,95.436,540.723,538.653,0.0
51753.0,STARLINK-3507,PAYLOAD,2023-12-07 05:00:53,15.08840253,0.0001625,53.2195,45.8824,98.7345,261.3831,0.0001441,2.006e-05,0.0,0 STARLINK-3507,1 51753U 22016AR  23341.20895322  .00002006  00000-0  14410-3 0  9997,2 51753  53.2195  45.8824 0001625  98.7345 261.3831 15.08840253100459,6917.88,95.438,540.869,538.62,0.0
51753.0,STARLINK-3507,PAYLOAD,2023-12-07 11:22:25,15.0884627,0.0001518,53.2192,44.6912,98.3669,261.7495,5.9028e-05,6.52e-06,0.0,0 STARLINK-3507,1 51753U 22016AR  23341.47391093  .00000652  00000-0  59028-4 0  9992,2 51753  53.2192  44.6912 0001518  98.3669 261.7495 15.08846270 99426,6917.861,95.437,540.776,538.676,0.0
51753.0,STARLINK-3507,PAYLOAD,2023-12-08 09:37:50,15.08837586,0.0001676,53.2195,40.5292,112.4071,247.7099,-4.2904e-05,-9.71e-06,0.0,0 STARLINK-3507,1 51753U 22016AR  23342.40127745 -.00000971  00000-0 -42904-4 0  9998,2 51753  53.2195  40.5292 0001676 112.4071 247.7099 15.08837586100635,6917.888,95.438,540.912,538.593,0.0
51753.0,STARLINK-3507,PAYLOAD,2023-12-09 11:04:00,15.0884257,0.0001613,53.2185,35.7687,107.8116,252.3052,-3.1191e-05,-7.84e-06,0.0,0 STARLINK-3507,1 51753U 22016AR  23343.46111562 -.00000784  00000-0 -31191-4 0  9993,2 51753  53.2185  35.7687 0001613 107.8116 252.3052 15.08842570100794,6917.873,95.437,540.853,538.622,0.0
51753.0,STARLINK-3507,PAYLOAD,2023-12-09 12:39:23,15.08843917,0.0001577,53.2185,35.4713,107.6794,252.4371,-4.5657e-05,-1.015e-05,0.0,0 STARLINK-3507,1 51753U 22016AR  23343.52735498 -.00001015  00000-0 -45657-4 0  9990,2 51753  53.2185  35.4713 0001577 107.6794 252.4371 15.08843917 99732,6917.868,95.437,540.824,538.642,0.0
51753.0,STARLINK-3507,PAYLOAD,2023-12-11 10:45:34,15.08842202,0.0001426,53.2185,26.8471,88.0193,272.0963,6.4388e-05,7.37e-06,0.0,0 STARLINK-3507,1 51753U 22016AR  23345.44831896  .00000737  00000-0  64388-4 0  9992,2 51753  53.2185  26.8471 0001426  88.0193 272.0963 15.08842202101099,6917.874,95.437,540.725,538.752,0.0
51753.0,STARLINK-3507,PAYLOAD,2023-12-12 09:00:58,15.08844827,0.0001829,53.2191,22.6848,65.364,294.7542,5.5068e-05,5.88e-06,0.0,0 STARLINK-3507,1 51753U 22016AR  23346.37568023  .00000588  00000-0  55068-4 0  9993,2 51753  53.2191  22.6848 0001829  65.3640 294.7542 15.08844827100166,6917.866,95.437,540.996,538.465,0.0
51753.0,STARLINK-3507,PAYLOAD,2023-12-13 08:51:45,15.08844166,0.0001481,53.2177,18.2288,81.3622,278.7538,3.3861e-05,2.51e-06,0.0,0 STARLINK-3507,1 51753U 22016AR  23347.36927741  .00000251  00000-0  33861-4 0  9993,2 51753  53.2177  18.2288 0001481  81.3622 278.7538 15.08844166101389,6917.868,95.437,540.757,538.708,0.0
51753.0,STARLINK-3507,PAYLOAD,2023-12-14 08:42:32,15.08840164,0.0001722,53.2195,13.7684,107.7055,252.4125,1.7049e-06,-2.61e-06,0.0,0 STARLINK-3507,1 51753U 22016AR  23348.36287918 -.00000261  00000-0  17049-5 0  9992,2 51753  53.2195  13.7684 0001722 107.7055 252.4125 15.08840164100463,6917.88,95.438,540.936,538.554,0.0
51753.0,STARLINK-3507,PAYLOAD,2023-12-14 18:14:51,15.0883977,0.0001687,53.2194,11.9828,106.0681,254.0497,3.0035e-07,-2.83e-06,0.0,0 STARLINK-3507,1 51753U 22016AR  23348.76031940 -.00000283  00000-0  30035-6 0  9993,2 51753  53.2194  11.9828 0001687 106.0681 254.0497 15.08839770101595,6917.881,95.438,540.913,538.579,0.0
